OBJECT_NAME,OBJECT_ID,EPOCH,MEAN_MOTION,ECCENTRICITY,INCLINATION,RA_OF_ASC_NODE,ARG_OF_PERICENTER,MEAN_ANOMALY,EPHEMERIS_TYPE,CLASSIFICATION_TYPE,NORAD_CAT_ID,ELEMENT_SET_NO,REV_AT_EPOCH,BSTAR,MEAN_MOTION_DOT,MEAN_MOTION_DDOT
ONEWEB-0621,2023-004Y,2026-07-07T11:02:48.680160,13.11414582,.0001832,87.8886,17.0300,83.2870,276.8467,0,U,55162,999,16846,-.40184E-3,-.13E-5,0
ONEWEB-0622,2023-004Z,2026-07-07T11:10:08.145120,13.11414996,.0002393,87.8889,17.0317,76.9531,283.1864,0,U,55163,999,16845,-.10529E-2,-.36E-5,0
ONEWEB-0623,2023-004AA,2026-07-06T21:55:19.883712,13.17647744,.0001989,87.9135,1.9533,67.5462,292.5880,0,U,55164,999,17018,.163E-3,.76E-6,0
ONEWEB-0624,2023-004AB,2026-07-07T09:21:59.277888,13.12928853,.0001796,87.8959,346.5639,90.2466,269.8869,0,U,55165,999,17072,-.91843E-3,-.32E-5,0
ONEWEB-0625,2023-004AC,2026-07-07T10:26:11.956704,13.17650280,.0001721,87.9138,1.8457,94.1596,265.9732,0,U,55166,999,17024,.67338E-4,.39E-6,0
ONEWEB-0626,2023-004AD,2026-07-07T10:11:38.787936,13.17648143,.0002101,87.9132,1.8466,99.4163,260.7206,0,U,55167,999,17024,.88379E-3,.356E-5,0
ONEWEB-0627,2023-004AE,2026-07-07T09:54:36.516096,13.17647934,.0001883,87.9138,1.8498,77.0895,283.0447,0,U,55168,999,17024,.15204E-3,.72E-6,0
ONEWEB-0628,2023-004AF,2026-07-06T22:07:18.297120,13.12442032,.0001756,87.8961,346.7285,72.4650,287.6671,0,U,55169,999,17062,-.92842E-3,-.321E-5,0
ONEWEB-0629,2023-004AG,2026-07-07T11:08:43.786752,13.17649083,.0001606,87.9137,1.8355,85.3646,274.7669,0,U,55170,999,17025,.73907E-4,.42E-6,0
ONEWEB-0631,2023-004AH,2026-07-07T08:39:08.615232,13.18685991,.0002369,87.9188,331.4236,93.7073,266.4330,0,U,55171,999,17233,.25394E-3,.113E-5,0
ONEWEB-0709,2023-004AJ,2026-07-06T23:09:54.355680,13.11418107,.0002502,87.8878,17.1402,104.3355,255.8051,0,U,55172,999,16846,.10319E-2,.378E-5,0
ONEWEB-0710,2023-004AK,2026-07-06T20:54:35.129088,13.17647917,.0001954,87.9137,1.9489,86.8322,273.3033,0,U,55173,999,17017,.59969E-5,.15E-6,0
ONEWEB-0711,2023-004AL,2026-07-07T11:17:27.395808,13.11415654,.0002162,87.8881,17.0276,70.5330,289.6031,0,U,55174,999,16849,-.13733E-2,-.474E-5,0
ONEWEB-0713,2023-004AM,2026-07-07T11:44:19.311360,13.11417676,.0002014,87.8883,17.0257,77.8576,282.2778,0,U,55175,999,16848,-.65612E-3,-.22E-5,0
ONEWEB-0715,2023-004AN,2026-07-07T11:36:59.467104,13.11416974,.0002501,87.8882,17.0272,94.9770,265.1644,0,U,55176,999,16852,-.10928E-2,-.375E-5,0
ONEWEB-0716,2023-004AP,2026-07-06T22:34:12.688032,13.17648261,.0001703,87.9138,1.9378,96.8170,263.3155,0,U,55177,999,17018,.19535E-4,.2E-6,0
ONEWEB-0717,2023-004AQ,2026-07-07T10:55:21.873792,13.17649307,.000226,87.9147,1.8252,79.3549,280.7837,0,U,55178,999,17030,.92E-4,.49E-6,0
ONEWEB-0719,2023-004AR,2026-07-07T11:09:56.391264,13.17649771,.0001661,87.9148,1.8034,91.1476,268.9846,0,U,55179,999,17025,-.46769E-4,-.5E-7,0
ONEWEB-0530,2023-029A,2026-07-07T03:58:17.416704,13.20772696,.0001989,87.9181,270.4865,86.1630,273.9731,0,U,55796,999,16378,.15378E-3,.76E-6,0
ONEWEB-0534,2023-029B,2026-07-07T05:30:23.642784,13.20773077,.000199,87.9183,270.4745,101.6026,258.5331,0,U,55797,999,16379,.89377E-4,.49E-6,0
ONEWEB-0556,2023-029C,2026-07-07T03:50:58.449408,13.20782024,.0001039,87.9178,270.4870,148.5507,211.5689,0,U,55798,999,16378,.34078E-2,.1399E-4,0
ONEWEB-0562,2023-029D,2026-07-06T16:37:04.981728,13.20772038,.0001607,87.9182,270.5614,75.9564,284.1748,0,U,55799,999,16372,-.68798E-4,-.15E-6,0
ONEWEB-0563,2023-029E,2026-07-06T16:29:47.584320,13.20773538,.0001986,87.9181,270.5928,106.2855,253.8497,0,U,55800,999,16371,-.10905E-3,-.31E-6,0
ONEWEB-0564,2023-029F,2026-07-07T05:03:45.088128,13.20772113,.0001867,87.9182,270.4623,89.6435,270.4912,0,U,55801,999,16379,.2281E-4,.22E-6,0
ONEWEB-0638,2023-029G,2026-07-06T17:26:51.200736,13.14555689,.0000616,87.8963,285.8565,91.4973,268.6227,0,U,55802,999,16196,-.28202E-1,-.10439E-3,0
ONEWEB-0639,2023-029H,2026-07-07T06:35:59.015040,13.19725855,.0002281,87.9185,300.9753,125.2461,234.8886,0,U,55803,999,16155,.22911E-3,.105E-5,0
ONEWEB-0640,2023-029J,2026-07-06T15:50:57.225120,13.14501348,.0001361,87.8963,285.8607,110.6783,249.4493,0,U,55804,999,16197,.23648E-4,.22E-6,0
ONEWEB-0641,2023-029K,2026-07-07T06:29:10.072608,13.19726134,.0002041,87.9189,300.9663,105.6873,254.4485,0,U,55805,999,16156,.92005E-4,.5E-6,0
ONEWEB-0642,2023-029L,2026-07-07T06:22:21.690912,13.19726250,.0002466,87.9187,300.9785,119.5719,240.5659,0,U,55806,999,16155,.29701E-3,.132E-5,0
ONEWEB-0643,2023-029M,2026-07-07T05:44:26.885184,13.14502250,.0002512,87.8961,285.7327,111.9065,248.2332,0,U,55807,999,16202,-.74679E-4,-.15E-6,0
ONEWEB-0644,2023-029N,2026-07-07T06:15:32.251680,13.19725505,.0002164,87.9183,300.9802,109.5001,250.6366,0,U,55808,999,16155,.28059E-3,.125E-5,0
