ONEWEB-0621             
1 55162U 23004Y   26188.46028565 -.00000130  00000+0 -40184-3 0  9994
2 55162  87.8886  17.0300 0001832  83.2870 276.8467 13.11414582168464
ONEWEB-0622             
1 55163U 23004Z   26188.46537205 -.00000360  00000+0 -10529-2 0  9995
2 55163  87.8889  17.0317 0002393  76.9531 283.1864 13.11414996168452
ONEWEB-0623             
1 55164U 23004AA  26187.91342458  .00000076  00000+0  16300-3 0  9995
2 55164  87.9135   1.9533 0001989  67.5462 292.5880 13.17647744170189
ONEWEB-0624             
1 55165U 23004AB  26188.39026942 -.00000320  00000+0 -91843-3 0  9995
2 55165  87.8959 346.5639 0001796  90.2466 269.8869 13.12928853170723
ONEWEB-0625             
1 55166U 23004AC  26188.43486061  .00000039  00000+0  67338-4 0  9991
2 55166  87.9138   1.8457 0001721  94.1596 265.9732 13.17650280170242
ONEWEB-0626             
1 55167U 23004AD  26188.42475449  .00000356  00000+0  88379-3 0  9998
2 55167  87.9132   1.8466 0002101  99.4163 260.7206 13.17648143170242
ONEWEB-0627             
1 55168U 23004AE  26188.41292264  .00000072  00000+0  15204-3 0  9992
2 55168  87.9138   1.8498 0001883  77.0895 283.0447 13.17647934170246
ONEWEB-0628             
1 55169U 23004AF  26187.92173955 -.00000321  00000+0 -92842-3 0  9995
2 55169  87.8961 346.7285 0001756  72.4650 287.6671 13.12442032170620
ONEWEB-0629             
1 55170U 23004AG  26188.46439568  .00000042  00000+0  73907-4 0  9992
2 55170  87.9137   1.8355 0001606  85.3646 274.7669 13.17649083170250
ONEWEB-0631             
1 55171U 23004AH  26188.36051638  .00000113  00000+0  25394-3 0  9995
2 55171  87.9188 331.4236 0002369  93.7073 266.4330 13.18685991172334
ONEWEB-0709             
1 55172U 23004AJ  26187.96521245  .00000378  00000+0  10319-2 0  9990
2 55172  87.8878  17.1402 0002502 104.3355 255.8051 13.11418107168461
ONEWEB-0710             
1 55173U 23004AK  26187.87123992  .00000015  00000+0  59969-5 0  9993
2 55173  87.9137   1.9489 0001954  86.8322 273.3033 13.17647917170170
ONEWEB-0711             
1 55174U 23004AL  26188.47045597 -.00000474  00000+0 -13733-2 0  9992
2 55174  87.8881  17.0276 0002162  70.5330 289.6031 13.11415654168494
ONEWEB-0713             
1 55175U 23004AM  26188.48911240 -.00000220  00000+0 -65612-3 0  9994
2 55175  87.8883  17.0257 0002014  77.8576 282.2778 13.11417676168486
ONEWEB-0715             
1 55176U 23004AN  26188.48402161 -.00000375  00000+0 -10928-2 0  9992
2 55176  87.8882  17.0272 0002501  94.9770 265.1644 13.11416974168527
ONEWEB-0716             
1 55177U 23004AP  26187.94042463  .00000020  00000+0  19535-4 0  9998
2 55177  87.9138   1.9378 0001703  96.8170 263.3155 13.17648261170184
ONEWEB-0717             
1 55178U 23004AQ  26188.45511428  .00000049  00000+0  92000-4 0  9997
2 55178  87.9147   1.8252 0002260  79.3549 280.7837 13.17649307170306
ONEWEB-0719             
1 55179U 23004AR  26188.46523601 -.00000005  00000+0 -46769-4 0  9990
2 55179  87.9148   1.8034 0001661  91.1476 268.9846 13.17649771170258
ONEWEB-0530             
1 55796U 23029A   26188.16547936  .00000076  00000+0  15378-3 0  9993
2 55796  87.9181 270.4865 0001989  86.1630 273.9731 13.20772696163781
ONEWEB-0534             
1 55797U 23029B   26188.22944031  .00000049  00000+0  89377-4 0  9999
2 55797  87.9183 270.4745 0001990 101.6026 258.5331 13.20773077163795
ONEWEB-0556             
1 55798U 23029C   26188.16039872  .00001399  00000+0  34078-2 0  9996
2 55798  87.9178 270.4870 0001039 148.5507 211.5689 13.20782024163783
ONEWEB-0562             
1 55799U 23029D   26187.69241877 -.00000015  00000+0 -68798-4 0  9998
2 55799  87.9182 270.5614 0001607  75.9564 284.1748 13.20772038163723
ONEWEB-0563             
1 55800U 23029E   26187.68735630 -.00000031  00000+0 -10905-3 0  9999
2 55800  87.9181 270.5928 0001986 106.2855 253.8497 13.20773538163713
ONEWEB-0564             
1 55801U 23029F   26188.21093852  .00000022  00000+0  22810-4 0  9990
2 55801  87.9182 270.4623 0001867  89.6435 270.4912 13.20772113163795
ONEWEB-0638             
1 55802U 23029G   26187.72698149 -.00010439  00000+0 -28202-1 0  9999
2 55802  87.8963 285.8565 0000616  91.4973 268.6227 13.14555689161961
ONEWEB-0639             
1 55803U 23029H   26188.27498860  .00000105  00000+0  22911-3 0  9999
2 55803  87.9185 300.9753 0002281 125.2461 234.8886 13.19725855161555
ONEWEB-0640             
1 55804U 23029J   26187.66038455  .00000022  00000+0  23648-4 0  9999
2 55804  87.8963 285.8607 0001361 110.6783 249.4493 13.14501348161977
ONEWEB-0641             
1 55805U 23029K   26188.27025547  .00000050  00000+0  92005-4 0  9990
2 55805  87.9189 300.9663 0002041 105.6873 254.4485 13.19726134161569
ONEWEB-0642             
1 55806U 23029L   26188.26552883  .00000132  00000+0  29701-3 0  9991
2 55806  87.9187 300.9785 0002466 119.5719 240.5659 13.19726250161554
ONEWEB-0643             
1 55807U 23029M   26188.23920006 -.00000015  00000+0 -74679-4 0  9992
2 55807  87.8961 285.7327 0002512 111.9065 248.2332 13.14502250162021
ONEWEB-0644             
1 55808U 23029N   26188.26078995  .00000125  00000+0  28059-3 0  9997
2 55808  87.9183 300.9802 0002164 109.5001 250.6366 13.19725505161559
